CUTE-1 (CO-55)          
1 27844U 03031E   26170.56610412  .00000202  00000+0  10624-3 0  9992
2 27844  98.6736 179.0951 0009689 171.1603 188.9749 14.24336935192018
CUBESAT XI-IV (CO-57)   
1 27848U 03031J   26170.97745452  .00000169  00000+0  93103-4 0  9990
2 27848  98.6765 179.2116 0009219 188.6492 171.4529 14.23622052191779
CUBESAT XI-V            
1 28895U 05043F   26170.91661833  .00001064  00000+0  17521-3 0  9996
2 28895  98.2988 326.5955 0013842 191.8457 168.2426 14.72637619102150
CUTE-1.7+APD II (CO-65) 
1 32785U 08021C   26171.23183503  .00004715  00000+0  29832-3 0  9991
2 32785  97.8278 152.7136 0009462  29.2800 330.8957 15.09475862985650
CANX-2                  
1 32790U 08021H   26170.88013754  .00003334  00000+0  23521-3 0  9992
2 32790  97.8642 150.7099 0011382  43.1250 317.0865 15.05636264985213
SEEDS II (CO-66)        
1 32791U 08021J   26170.94270999  .00015827  00000+0  50132-3 0  9994
2 32791  97.7524 168.9721 0000692 347.0777  13.0446 15.32829868987716
SWISSCUBE               
1 35932U 09051B   26171.17902305  .00000711  00000+0  15003-3 0  9991
2 35932  98.4033  79.1195 0006171 192.6984 167.4062 14.62486325889593
BEESAT-1                
1 35933U 09051C   26170.71084495  .00000603  00000+0  13077-3 0  9991
2 35933  98.3961  78.2733 0004371 207.4388 152.6582 14.61723870889551
ITUPSAT1                
1 35935U 09051E   26171.25204672  .00000541  00000+0  12172-3 0  9990
2 35935  98.4046  78.0115 0006403 222.9093 137.1608 14.60444493889189
TISAT 1                 
1 36799U 10035E   26170.59950984  .00016853  00000+0  55138-3 0  9995
2 36799  98.0711 117.3622 0001733 165.0171 195.1121 15.31783509868070
AEROCUBE 4.5A           
1 38767U 12048K   26171.29182622  .00547259  13718-3  10902-2 0  9994
2 38767  64.6225  15.4844 0019140 232.0670 127.8765 15.99221557373150
STRAND-1                
1 39090U 13009E   26170.98012229  .00000194  00000+0  79707-4 0  9990
2 39090  98.3923 351.1457 0007876 216.0202 144.0455 14.37164594697463
BRITE-AUSTRIA           
1 39091U 13009F   26170.29768615  .00000120  00000+0  55501-4 0  9997
2 39091  98.3996 349.6811 0009231 229.4697 130.5686 14.36542792697356
NEE-01 PEGASO           
1 39151U 13018B   26170.34231826  .00002563  00000+0  24786-3 0  9992
2 39151  98.1228 314.5632 0013307 152.2100 207.9832 14.93669357711025
POPACS 2                
1 39269U 13055E   26171.19606755  .00012963  00000+0  21874-3 0  9994
2 39269  80.9911 140.7481 0416717 184.1161 175.6599 14.91281198663665
POPACS 3                
1 39270U 13055F   26171.14280147  .00008341  00000+0  19604-3 0  9997
2 39270  80.9998 225.9831 0551883  61.0020 304.5329 14.56168702638985
ZACUBE-1 (TSHEPISOSAT)  
1 39417U 13066B   26170.94018519  .00002355  00000+0  18525-3 0  9991
2 39417  97.8072 133.2914 0041152 238.1921 121.5293 15.01201080681142
WNISAT-1                
1 39423U 13066H   26171.29927629  .00000732  00000+0  14195-3 0  9994
2 39423  97.7206 320.2347 0162139 221.7256 137.1487 14.58066888667185
TRITON-1                
1 39427U 13066M   26171.26700187  .00001544  00000+0  18995-3 0  9997
2 39427  97.8245  81.0039 0088618 223.6968 135.7207 14.81715511674545
GOMX-1                  
1 39430U 13066Q   26171.25015190  .00001171  00000+0  18105-3 0  9992
2 39430  97.6478  11.5188 0130104  67.8557 293.6400 14.69468214670364
CUBEBUG-2 (LO-74)       
1 39440U 13066AA  26171.27848929  .00004167  00000+0  38586-3 0  9992
2 39440  97.8909 120.2695 0058179  19.0950 341.2432 14.93785800677456
NEE-02 KRYSAOR          
1 39441U 13066AB  26171.30534812  .00002109  00000+0  23435-3 0  9991
2 39441  97.8892 110.4975 0067518  60.2269 300.5640 14.86629640676660
FUNCUBE-1 (AO-73)       
1 39444U 13066AE  26171.17211760  .00004774  00000+0  29759-3 0  9998
2 39444  97.8278 142.6800 0035926 190.4382 169.6104 15.09518490680115
UWE-3                   
1 39446U 13066AG  26171.29028370  .00003740  00000+0  32274-3 0  9994
2 39446  97.8702 127.3847 0047211 310.7408  48.9719 14.97046426678047
BRITE-CA1 (TORONTO)     
1 40020U 14033L   26171.29911970  .00000560  00000+0  92021-4 0  9990
2 40020  97.9743 300.1697 0077213 266.8698  92.3673 14.72680408642673
DUCHIFAT-1              
1 40021U 14033M   26170.64352406  .00095101  00000+0  96085-3 0  9990
2 40021  98.0454 230.1491 0002568 110.7852 249.3681 15.65018762656139
NANOSATC-BR1            
1 40024U 14033Q   26170.62290769  .00013808  00000+0  45604-3 0  9999
2 40024  98.0719 203.2269 0004587 156.5855 203.5594 15.31521278654355
QB50P1                  
1 40025U 14033R   26171.31353526  .00007093  00000+0  34929-3 0  9995
2 40025  98.0964 182.6784 0008083 203.9686 156.1171 15.18299167653508
QB50P2                  
1 40032U 14033Y   26170.93984048  .00006262  00000+0  33724-3 0  9998
2 40032  98.0755 167.9914 0008246 155.0319 205.1312 15.15188064653081
PERSEUS-M2              
1 40037U 14033AD  26171.27471211  .00001441  00000+0  13552-3 0  9995
2 40037  97.9967 121.8781 0010326 292.9998  67.0132 14.95517495651248
